ONEWEB-0233             
1 48795U 21045AE  24260.82269181  .00000090  00000+0  20515-3 0  9990
2 48795  87.9092  26.2761 0001893 106.3462 253.7877 13.15552468160362
ONEWEB-0190             
1 48796U 21045AF  24260.88530476  .00000191  00000+0  47457-3 0  9991
2 48796  87.9096  26.2240 0002080 127.6208 232.5111 13.15546191160443
ONEWEB-0236             
1 48797U 21045AG  24260.82667166  .00000088  00000+0  19868-3 0  9993
2 48797  87.9100  26.2329 0001850 101.4657 258.6681 13.15546650161442
ONEWEB-0248             
1 48798U 21045AH  24260.91542142 -.00000072  00000+0 -22544-3 0  9990
2 48798  87.9093  26.1977 0002375 113.1318 247.0063 13.15548119160491
ONEWEB-0225             
1 48799U 21045AJ  24260.86154443  .00000012  00000+0 -19505-5 0  9996
2 48799  87.9094  26.2248 0001954 112.9766 247.1571 13.15547113160499
ONEWEB-0215             
1 48800U 21045AK  24260.90749608 -.00000018  00000+0 -82518-4 0  9997
2 48800  87.9092  26.1848 0002333 117.7667 242.3700 13.15548475160370
ONEWEB-0216             
1 48801U 21045AL  24260.91700031 -.00000017  00000+0 -79098-4 0  9994
2 48801  87.9093  26.2244 0001469 104.0555 256.0739 13.15547595160384
ONEWEB-0239             
1 48802U 21045AM  24260.84568161 -.00000034  00000+0 -12410-3 0  9996
2 48802  87.9100  26.2226 0002491 115.5939 244.5449 13.15545731161553
